[{"OBJECT_NAME":"OBJECT F","OBJECT_ID":"2022-167F","EPOCH":"2026-03-09T22:34:52.000032","MEAN_MOTION":15.68472614,"ECCENTRICITY":0.00018013,"INCLINATION":97.6217,"RA_OF_ASC_NODE":246.6908,"ARG_OF_PERICENTER":28.5626,"MEAN_ANOMALY":331.5733,"EPHEMERIS_TYPE":0,"CLASSIFICATION_TYPE":"U","NORAD_CAT_ID":54687,"ELEMENT_SET_NO":999,"REV_AT_EPOCH":18117,"BSTAR":0.00078904481,"MEAN_MOTION_DOT":0.00089617,"MEAN_MOTION_DDOT":0},{"OBJECT_NAME":"STARLINK-11314 [DTC]","OBJECT_ID":"2024-204E","EPOCH":"2026-03-09T22:52:11.378208","MEAN_MOTION":15.69711145,"ECCENTRICITY":0.00013586,"INCLINATION":53.1578,"RA_OF_ASC_NODE":355.1381,"ARG_OF_PERICENTER":59.0611,"MEAN_ANOMALY":301.054,"EPHEMERIS_TYPE":0,"CLASSIFICATION_TYPE":"U","NORAD_CAT_ID":61878,"ELEMENT_SET_NO":999,"REV_AT_EPOCH":7695,"BSTAR":-2.4586804e-5,"MEAN_MOTION_DOT":-3.567e-5,"MEAN_MOTION_DDOT":0}]
